COSMOS 2547             
1 46805U 20075A   26063.76811950  .00000008  00000+0  00000+0 0  9997
2 46805  64.5996 195.9570 0006753 229.6375 130.2687  2.13100113 41683
GPS BIII-4              
1 46826U 20078A   26063.80241721  .00000001  00000+0  00000+0 0  9994
2 46826  54.0015 215.0095 0068235 204.3155 325.6791  2.00565545 39411
GSAT0223 (GALILEO 27)   
1 49809U 21116A   26048.03988929 -.00000078  00000+0  00000+0 0  9993
2 49809  57.2005 344.9238 0002865 278.1950 264.6358  1.70475508 26130
GSAT0224 (GALILEO 28)   
1 49810U 21116B   26054.89517960 -.00000088  00000+0  00000+0 0  9990
2 49810  57.1984 344.7369 0002182 291.9502 250.7131  1.70475193 26278
GOES 18                 
1 51850U 22021A   26063.49975577  .00000085  00000+0  00000+0 0  9997
2 51850   0.0304  75.7612 0000657 323.5131 165.8689  1.00272095  5545
COSMOS 2557 (706K)      
1 52984U 22075A   26062.52543027 -.00000052  00000+0  00000+0 0  9994
2 52984  64.3599 318.2098 0011629 283.5045  76.4245  2.13101658 28468
METEOSAT-12 (MTG-I1)    
1 54743U 22170C   26063.38239013 -.00000019  00000+0  00000+0 0  9990
2 54743   0.7009  21.3486 0002149 285.0111 353.1353  1.00269482 11927
METEOR-M2 3             
1 57166U 23091A   26063.82893869  .00000020  00000+0  27681-4 0  9999
2 57166  98.6224 120.8802 0005059 110.3486 249.8237 14.24037071139660
COSMOS 2569 (703K)      
1 57517U 23114A   26063.60906547  .00000011  00000+0  00000+0 0  9990
2 57517  65.2420  76.1460 0012899 291.6250  68.2783  2.13103963 20031
METEOR-M2 4             
1 59051U 24039A   26063.86583466  .00000041  00000+0  38155-4 0  9991
2 59051  98.6899  24.5417 0008083 108.3768 251.8289 14.22416230104438
GSAT0225 (GALILEO 29)   
1 59598U 24079A   26063.40947620  .00000010  00000+0  00000+0 0  9996
2 59598  55.0499 104.0071 0002567 257.4234 103.5813  1.70474922 11537
GSAT0227 (GALILEO 30)   
1 59600U 24079C   26062.41821347  .00000012  00000+0  00000+0 0  9999
2 59600  55.0440 104.0338 0000359  68.5105 291.5792  1.70474834 11567
GSAT0232 (GALILEO 32)   
1 61182U 24167A   26048.66150565  .00000069  00000+0  00000+0 0  9995
2 61182  55.2225 224.5881 0003600 296.6314 116.1306  1.70443939  8265
GSAT0226 (GALILEO 31)   
1 61183U 24167B   26063.09230740  .00000011  00000+0  00000+0 0  9991
2 61183  55.2176 224.2005 0001588 128.6581 232.0353  1.70474186  9066
GSAT0233 (GALILEO 33)   
1 67160U 25302A   26044.50000000 -.00000008  00000+0  00000+0 0  9990
2 67160  54.3935 105.2952 0003011 207.0582 359.4109  1.70474578    20
GSAT0234 (GALILEO 34)   
1 67162U 25302C   26044.50000000 -.00000008  00000+0  00000+0 0  9992
2 67162  54.3967 105.2938 0003081 266.8423 119.7309  1.70475065   127
